IRIDIUM 150             
1 43257U 18030J   24017.27406393 -.00000015  00000+0 -12411-4 0  9991
2 43257  86.3976 299.0405 0001609  72.8731 287.2641 14.34220073303759
IRIDIUM 143             
1 43258U 18030K   24017.32480458 -.00000110  00000+0 -46210-4 0  9992
2 43258  86.3981 299.0776 0001698  86.3788 273.7602 14.34216363303694
IRIDIUM 161             
1 43478U 18047C   24017.62737280  .00000763  00000+0  22083-3 0  9998
2 43478  86.4484  96.9329 0002217  94.2298 265.9156 14.43306514297986
IRIDIUM 152             
1 43479U 18047D   24017.64636601  .00000074  00000+0  19326-4 0  9998
2 43479  86.3956  96.7844 0002030 101.8545 258.2878 14.34217851296141
IRIDIUM 147             
1 43480U 18047E   24017.58294107  .00000274  00000+0  90793-4 0  9993
2 43480  86.3958  96.8000 0002277  91.5686 268.5771 14.34218377296122
IRIDIUM 110             
1 43481U 18047F   24017.58928462  .00000032  00000+0  41852-5 0  9997
2 43481  86.3961  96.8665 0002283  85.1452 275.0005 14.34218097296112
IRIDIUM 162             
1 43482U 18047G   24017.75979093  .00000749  00000+0  21669-3 0  9990
2 43482  86.4481  96.7794 0002176  93.0522 267.0928 14.43304935297999
IRIDIUM 160             
1 43569U 18061A   24017.53511863  .00000336  00000+0  11286-3 0  9991
2 43569  86.3941  65.2376 0002519 101.0395 259.1084 14.34220186287002
